{"type": "FeatureCollection", "features": [{"type": "Feature", "properties": {"COLONIA": "31 DE OCTUBRE", "area_km2": 0.365848703125}, "geometry": {"type": "Polygon", "coordinates": [[[-105.448567, 28.164023], [-105.449246, 28.16399], [-105.449418, 28.164269], [-105.450302, 28.165703], [-105.450671, 28.165593], [-105.450864, 28.165523], [-105.451394, 28.165353], [-105.452733, 28.164923], [-105.453078, 28.164803], [-105.453058, 28.164208], [-105.453057, 28.163319], [-105.453055, 28.162372], [-105.453053, 28.16109], [-105.453062, 28.159462], [-105.448665, 28.159142], [-105.445442, 28.162889], [-105.44733, 28.164082], [-105.447784, 28.16406], [-105.448567, 28.164023]]]}}, {"type": "Feature", "properties": {"COLONIA": "ALAMEDA", "area_km2": 0.038431263671875}, "geometry": {"type": "Polygon", "coordinates": [[[-105.467441, 28.175155], [-105.467511, 28.17558], [-105.468607, 28.175113], [-105.469393, 28.174779], [-105.470707, 28.174205], [-105.472379, 28.173443], [-105.472591, 28.173355], [-105.473531, 28.172966], [-105.473726, 28.172742], [-105.473597, 28.17265], [-105.473491, 28.172464], [-105.472222, 28.172973], [-105.470203, 28.173822], [-105.469385, 28.174187], [-105.46819, 28.174685], [-105.46742, 28.174993], [-105.467441, 28.175155]]]}}, {"type": "Feature", "properties": {"COLONIA": "CAMPO REAL", "area_km2": 0.30257365234375}, "geometry": {"type": "Polygon", "coordinates": [[[-105.455959, 28.212379], [-105.45616, 28.212431], [-105.457491, 28.212776], [-105.45754, 28.212786], [-105.45765, 28.212808], [-105.459305, 28.213202], [-105.459465, 28.213233], [-105.459427, 28.212876], [-105.459263, 28.211322], [-105.459252, 28.211223], [-105.45916, 28.209213], [-105.459019, 28.207943], [-105.459065, 28.206812], [-105.459062, 28.206738], [-105.457205, 28.207042], [-105.45497, 28.207408], [-105.454067, 28.206952], [-105.453926, 28.20725], [-105.453863, 28.207686], [-105.45372, 28.207697], [-105.453763, 28.208049], [-105.453816, 28.208488], [-105.453978, 28.209819], [-105.454617, 28.211913], [-105.455528, 28.212113], [-105.455895, 28.212203], [-105.455902, 28.212212], [-105.455959, 28.212379]]]}}, {"type": "Feature", "properties": {"COLONIA": "CARMONA", "area_km2": 0.082023548828125}, "geometry": {"type": "Polygon", "coordinates": [[[-105.474377, 28.20744], [-105.47481, 28.207879], [-105.47491, 28.207999], [-105.475478, 28.208681], [-105.476004, 28.209352], [-105.477115, 28.210772], [-105.477353, 28.211076], [-105.477606, 28.211399], [-105.477858, 28.211721], [-105.478113, 28.212047], [-105.478364, 28.212368], [-105.478531, 28.212582], [-105.478743, 28.213774], [-105.479187, 28.214309], [-105.479777, 28.214286], [-105.479741, 28.214099], [-105.479745, 28.21384], [-105.479482, 28.213066], [-105.479154, 28.212325], [-105.478816, 28.211694], [-105.47851, 28.211195], [-105.478205, 28.210791], [-105.477828, 28.210297], [-105.476615, 28.208955], [-105.475999, 28.208361], [-105.47413, 28.206466], [-105.47314, 28.205442], [-105.472596, 28.20491], [-105.472443, 28.205051], [-105.472289, 28.205192], [-105.472701, 28.205589], [-105.473172, 28.206003], [-105.473546, 28.206341], [-105.473844, 28.206666], [-105.473945, 28.206826], [-105.474259, 28.20732], [-105.474377, 28.20744]]]}}, {"type": "Feature", "properties": {"COLONIA": "COLINAS DEL VALLE", "area_km2": 0.32796496484375}, "geometry": {"type": "Polygon", "coordinates": [[[-105.482206, 28.168064], [-105.48218, 28.167914], [-105.482144, 28.167699], [-105.482077, 28.167302], [-105.482011, 28.166907], [-105.48194, 28.166486], [-105.481869, 28.166065], [-105.481802, 28.165666], [-105.481791, 28.16558], [-105.481726, 28.165163], [-105.481468, 28.163501], [-105.481405, 28.163093], [-105.481389, 28.16299], [-105.481332, 28.162567], [-105.481105, 28.160864], [-105.48105, 28.160456], [-105.480767, 28.158361], [-105.4806, 28.157088], [-105.480397, 28.15554], [-105.480315, 28.154916], [-105.477643, 28.15511], [-105.47852, 28.159853], [-105.479267, 28.163251], [-105.479285, 28.163326], [-105.479852, 28.165782], [-105.479867, 28.165853], [-105.480178, 28.167392], [-105.481046, 28.168618], [-105.482206, 28.168064]]]}}, {"type": "Feature", "properties": {"COLONIA": "CUMBRES DEL DEPORTE", "area_km2": 1.131431060546875}, "geometry": {"type": "Polygon", "coordinates": [[[-105.488147, 28.155383], [-105.487068, 28.155063], [-105.486522, 28.155052], [-105.485987, 28.155042], [-105.485458, 28.155031], [-105.484942, 28.155021], [-105.484382, 28.155011], [-105.481929, 28.154963], [-105.481149, 28.154948], [-105.480769, 28.154883], [-105.481063, 28.157206], [-105.481278, 28.1589], [-105.481444, 28.160205], [-105.481528, 28.16087], [-105.481727, 28.162433], [-105.482055, 28.165019], [-105.482556, 28.168885], [-105.48298, 28.1687], [-105.485934, 28.16741], [-105.487604, 28.166681], [-105.488768, 28.166173], [-105.489946, 28.165659], [-105.494693, 28.163585], [-105.490251, 28.160343], [-105.486523, 28.158394], [-105.486591, 28.158276], [-105.486843, 28.157811], [-105.487029, 28.157438], [-105.48722, 28.157056], [-105.487422, 28.156682], [-105.487627, 28.156297], [-105.487833, 28.155925], [-105.488147, 28.155383]]]}}, {"type": "Feature", "properties": {"COLONIA": "DEL EMPLEADO", "area_km2": 0.571256919921875}, "geometry": {"type": "Polygon", "coordinates": [[[-105.479669, 28.205978], [-105.480034, 28.206048], [-105.480665, 28.206169], [-105.481272, 28.206285], [-105.481758, 28.206378], [-105.482024, 28.206429], [-105.482282, 28.206478], [-105.482657, 28.20655], [-105.483312, 28.206676], [-105.483983, 28.206804], [-105.484738, 28.206949], [-105.484808, 28.206991], [-105.484913, 28.206517], [-105.484879, 28.206408], [-105.484869, 28.206028], [-105.484734, 28.2057], [-105.484164, 28.204526], [-105.484119, 28.204433], [-105.484239, 28.204168], [-105.484482, 28.203632], [-105.484158, 28.20345], [-105.484116, 28.203075], [-105.484053, 28.202512], [-105.483972, 28.201792], [-105.483947, 28.201575], [-105.483811, 28.200563], [-105.483727, 28.199942], [-105.483539, 28.19875], [-105.483614, 28.19851], [-105.483198, 28.198144], [-105.482837, 28.197826], [-105.482413, 28.197453], [-105.482017, 28.197104], [-105.481641, 28.196753], [-105.481233, 28.196389], [-105.480984, 28.196167], [-105.480258, 28.19552], [-105.479552, 28.194917], [-105.47887, 28.195526], [-105.479106, 28.195832], [-105.479494, 28.196196], [-105.479359, 28.196332], [-105.479248, 28.196849], [-105.479089, 28.197599], [-105.478951, 28.198247], [-105.478742, 28.199285], [-105.478689, 28.199568], [-105.478583, 28.200126], [-105.47843, 28.200984], [-105.478326, 28.201274], [-105.478073, 28.202437], [-105.477855, 28.203419], [-105.477836, 28.203509], [-105.478182, 28.203957], [-105.478565, 28.204452], [-105.478888, 28.204894], [-105.479058, 28.205127], [-105.479222, 28.205357], [-105.479521, 28.205779], [-105.479566, 28.205842], [-105.479669, 28.205978]]]}}, {"type": "Feature", "properties": {"COLONIA": "DEL REAL", "area_km2": 0.0356430625}, "geometry": {"type": "Polygon", "coordinates": [[[-105.459019, 28.207943], [-105.45916, 28.209213], [-105.459252, 28.211223], [-105.459645, 28.211141], [-105.459847, 28.211045], [-105.460104, 28.210923], [-105.460361, 28.210801], [-105.460647, 28.21054], [-105.460853, 28.210353], [-105.460361, 28.209495], [-105.459865, 28.208663], [-105.459258, 28.207924], [-105.459019, 28.207943]]]}}, {"type": "Feature", "properties": {"COLONIA": "DELIA", "area_km2": 0.040963564453125}, "geometry": {"type": "Polygon", "coordinates": [[[-105.462108, 28.184636], [-105.463591, 28.185921], [-105.463965, 28.185588], [-105.464305, 28.185286], [-105.464653, 28.184975], [-105.465033, 28.184637], [-105.46389, 28.183629], [-105.463561, 28.183339], [-105.463207, 28.183655], [-105.462834, 28.183987], [-105.462481, 28.184303], [-105.462108, 28.184636]]]}}, {"type": "Feature", "properties": {"COLONIA": "DELICIAS RESIDENCIAL", "area_km2": 0.244907884765625}, "geometry": {"type": "Polygon", "coordinates": [[[-105.475545, 28.180596], [-105.47694, 28.181838], [-105.478382, 28.183154], [-105.478918, 28.183625], [-105.479099, 28.183788], [-105.479819, 28.184436], [-105.480504, 28.183836], [-105.481047, 28.18336], [-105.481396, 28.183656], [-105.481777, 28.183978], [-105.482284, 28.183525], [-105.482791, 28.183072], [-105.483242, 28.182669], [-105.48253, 28.182035], [-105.481627, 28.181263], [-105.481045, 28.180766], [-105.479591, 28.179477], [-105.479093, 28.179036], [-105.478125, 28.178178], [-105.477682, 28.178572], [-105.476678, 28.179468], [-105.476113, 28.179972], [-105.475677, 28.180412], [-105.475545, 28.180596]]]}}, {"type": "Feature", "properties": {"COLONIA": "DESARROLLO URBANO", "area_km2": 0.122190119140625}, "geometry": {"type": "Polygon", "coordinates": [[[-105.456528, 28.161017], [-105.456941, 28.161213], [-105.457386, 28.161423], [-105.457701, 28.161572], [-105.457811, 28.161624], [-105.458192, 28.161805], [-105.458259, 28.161837], [-105.458669, 28.162031], [-105.459229, 28.162332], [-105.458997, 28.161555], [-105.459346, 28.160923], [-105.459493, 28.16069], [-105.45939, 28.160627], [-105.45895, 28.160568], [-105.45912, 28.159553], [-105.459573, 28.159605], [-105.459724, 28.158719], [-105.459888, 28.158803], [-105.460281, 28.158706], [-105.460013, 28.157746], [-105.459434, 28.157669], [-105.458967, 28.157607], [-105.458516, 28.157547], [-105.45805, 28.157486], [-105.457586, 28.157424], [-105.457132, 28.157364], [-105.456969, 28.158348], [-105.456818, 28.159264], [-105.456653, 28.160261], [-105.456528, 28.161017]]]}}, {"type": "Feature", "properties": {"COLONIA": "EL PEDREGAL", "area_km2": 0.05365404296875}, "geometry": {"type": "Polygon", "coordinates": [[[-105.465418, 28.208776], [-105.465322, 28.208871], [-105.465375, 28.209868], [-105.465452, 28.210076], [-105.465849, 28.210381], [-105.466195, 28.210646], [-105.466519, 28.21094], [-105.466577, 28.210993], [-105.466867, 28.211256], [-105.467234, 28.211589], [-105.467957, 28.210984], [-105.468289, 28.210661], [-105.468634, 28.210339], [-105.46826, 28.210007], [-105.467899, 28.209703], [-105.467575, 28.209411], [-105.467228, 28.209098], [-105.466887, 28.208789], [-105.466168, 28.209427], [-105.465767, 28.209079], [-105.465418, 28.208776]]]}}, {"type": "Feature", "properties": {"COLONIA": "EL PEDREGAL II", "area_km2": 0.013478166015625}, "geometry": {"type": "Polygon", "coordinates": [[[-105.467957, 28.210984], [-105.468254, 28.211245], [-105.469184, 28.212073], [-105.469245, 28.211508], [-105.469501, 28.211115], [-105.468634, 28.210339], [-105.468289, 28.210661], [-105.467957, 28.210984]]]}}, {"type": "Feature", "properties": {"COLONIA": "EL PEDREGAL III", "area_km2": 0.05575850390625}, "geometry": {"type": "Polygon", "coordinates": [[[-105.468615, 28.213599], [-105.469522, 28.21413], [-105.469568, 28.213788], [-105.469578, 28.213717], [-105.469804, 28.211374], [-105.469501, 28.211115], [-105.469245, 28.211508], [-105.469184, 28.212073], [-105.468254, 28.211245], [-105.467957, 28.210984], [-105.467234, 28.211589], [-105.467601, 28.211922], [-105.46724, 28.212289], [-105.467028, 28.212503], [-105.466844, 28.21269], [-105.466934, 28.212737], [-105.466953, 28.212747], [-105.467724, 28.213142], [-105.467771, 28.213166], [-105.467816, 28.213189], [-105.467835, 28.213199], [-105.468564, 28.213573], [-105.468576, 28.213579], [-105.468615, 28.213599]]]}}, {"type": "Feature", "properties": {"COLONIA": "EL REFUGIO", "area_km2": 0.119470763671875}, "geometry": {"type": "Polygon", "coordinates": [[[-105.453368, 28.159484], [-105.453893, 28.159722], [-105.454326, 28.159915], [-105.455607, 28.160485], [-105.456049, 28.160682], [-105.456408, 28.160841], [-105.456476, 28.160992], [-105.456528, 28.161017], [-105.456653, 28.160261], [-105.456818, 28.159264], [-105.456969, 28.158348], [-105.457132, 28.157364], [-105.456629, 28.157298], [-105.45615, 28.157249], [-105.455864, 28.157217], [-105.454759, 28.15705], [-105.454331, 28.156993], [-105.453839, 28.156928], [-105.453332, 28.156861], [-105.453353, 28.158393], [-105.453368, 28.159484]]]}}, {"type": "Feature", "properties": {"COLONIA": "EMILIANO J. LAING", "area_km2": 0.2431995546875}, "geometry": {"type": "Polygon", "coordinates": [[[-105.453186, 28.164765], [-105.453355, 28.164678], [-105.454664, 28.164222], [-105.455157, 28.164051], [-105.455366, 28.163993], [-105.455545, 28.164162], [-105.45566, 28.164267], [-105.455652, 28.164886], [-105.455644, 28.165504], [-105.456145, 28.165331], [-105.456661, 28.165159], [-105.456912, 28.165382], [-105.457101, 28.165205], [-105.457379, 28.165095], [-105.457213, 28.164946], [-105.457672, 28.164718], [-105.457779, 28.164613], [-105.457993, 28.164402], [-105.458319, 28.164093], [-105.458432, 28.163986], [-105.458531, 28.163896], [-105.458621, 28.163604], [-105.458252, 28.163231], [-105.458152, 28.163058], [-105.458635, 28.162878], [-105.459301, 28.162607], [-105.459229, 28.162332], [-105.458669, 28.162031], [-105.458259, 28.161837], [-105.458192, 28.161805], [-105.457811, 28.161624], [-105.457701, 28.161572], [-105.457386, 28.161423], [-105.456941, 28.161213], [-105.456528, 28.161017], [-105.456476, 28.160992], [-105.456408, 28.160841], [-105.456049, 28.160682], [-105.455607, 28.160485], [-105.454326, 28.159915], [-105.453893, 28.159722], [-105.453368, 28.159484], [-105.453062, 28.159462], [-105.453053, 28.16109], [-105.453055, 28.162372], [-105.453057, 28.163319], [-105.453058, 28.164208], [-105.453078, 28.164803], [-105.453186, 28.164765]]]}}, {"type": "Feature", "properties": {"COLONIA": "FLAMINGO", "area_km2": 0.20390721875}, "geometry": {"type": "Polygon", "coordinates": [[[-105.448106, 28.204622], [-105.448113, 28.20491], [-105.448145, 28.205178], [-105.447659, 28.205177], [-105.44732, 28.205177], [-105.447306, 28.205535], [-105.447256, 28.206799], [-105.447247, 28.207028], [-105.447221, 28.207682], [-105.447209, 28.207992], [-105.44719, 28.208457], [-105.448182, 28.208034], [-105.448391, 28.20863], [-105.448563, 28.209098], [-105.449065, 28.208693], [-105.449386, 28.208375], [-105.449634, 28.208128], [-105.44998, 28.207882], [-105.450421, 28.207577], [-105.451029, 28.207309], [-105.45167, 28.207042], [-105.452856, 28.206534], [-105.453079, 28.206447], [-105.453548, 28.20628], [-105.453531, 28.206075], [-105.453514, 28.205869], [-105.453416, 28.204692], [-105.453377, 28.204221], [-105.453171, 28.204235], [-105.45199, 28.204311], [-105.451913, 28.204602], [-105.450502, 28.204609], [-105.449387, 28.204615], [-105.448106, 28.204622]]]}}, {"type": "Feature", "properties": {"COLONIA": "FLORES DEL TEPEYAC", "area_km2": 0.28615063671875}, "geometry": {"type": "Polygon", "coordinates": [[[-105.473707, 28.171972], [-105.473831, 28.17201], [-105.473941, 28.172083], [-105.474017, 28.172197], [-105.476342, 28.171524], [-105.475924, 28.171215], [-105.475852, 28.171162], [-105.475886, 28.171151], [-105.47592, 28.17114], [-105.477122, 28.170623], [-105.477329, 28.170534], [-105.478436, 28.170059], [-105.478546, 28.169813], [-105.476254, 28.168259], [-105.476103, 28.162571], [-105.47374, 28.162611], [-105.473738, 28.163089], [-105.473734, 28.164372], [-105.473733, 28.164689], [-105.473728, 28.166139], [-105.473727, 28.166311], [-105.473724, 28.167091], [-105.473721, 28.167929], [-105.47372, 28.168263], [-105.473719, 28.168638], [-105.473717, 28.169253], [-105.473712, 28.170652], [-105.473707, 28.171972]]]}}, {"type": "Feature", "properties": {"COLONIA": "FONAPO", "area_km2": 0.368313982421875}, "geometry": {"type": "Polygon", "coordinates": [[[-105.450316, 28.177917], [-105.450314, 28.178726], [-105.450292, 28.181651], [-105.450526, 28.181956], [-105.450992, 28.181748], [-105.45089, 28.181622], [-105.450893, 28.181086], [-105.451033, 28.180942], [-105.451047, 28.179082], [-105.451056, 28.178741], [-105.451984, 28.178693], [-105.453173, 28.17883], [-105.453425, 28.178859], [-105.453428, 28.179164], [-105.454252, 28.178822], [-105.454638, 28.178662], [-105.455075, 28.178481], [-105.455122, 28.1784], [-105.454728, 28.178038], [-105.454366, 28.177711], [-105.453955, 28.177339], [-105.453406, 28.17719], [-105.453399, 28.176576], [-105.453392, 28.175936], [-105.45338, 28.174887], [-105.453158, 28.174891], [-105.453159, 28.172316], [-105.45315, 28.168633], [-105.452766, 28.168639], [-105.452335, 28.168647], [-105.45192, 28.168653], [-105.451544, 28.168658], [-105.451111, 28.168663], [-105.4511, 28.168161], [-105.450691, 28.168388], [-105.450429, 28.168534], [-105.450383, 28.168581], [-105.450377, 28.169744], [-105.450299, 28.16989], [-105.450303, 28.170191], [-105.450302, 28.171017], [-105.450301, 28.172344], [-105.450304, 28.173254], [-105.450318, 28.17688], [-105.450316, 28.177917]]]}}, {"type": "Feature", "properties": {"COLONIA": "FOVISSSTE GRANJAS", "area_km2": 0.058037482421875}, "geometry": {"type": "Polygon", "coordinates": [[[-105.480561, 28.185069], [-105.480875, 28.185359], [-105.481128, 28.185592], [-105.481413, 28.185675], [-105.481603, 28.185632], [-105.482083, 28.185174], [-105.482565, 28.184713], [-105.482582, 28.184697], [-105.483878, 28.183449], [-105.483911, 28.183276], [-105.48367, 28.183058], [-105.483242, 28.182669], [-105.482791, 28.183072], [-105.482284, 28.183525], [-105.481777, 28.183978], [-105.481396, 28.183656], [-105.481047, 28.18336], [-105.480504, 28.183836], [-105.479819, 28.184436], [-105.480169, 28.184734], [-105.480561, 28.185069]]]}}, {"type": "Feature", "properties": {"COLONIA": "FOVISSSTE LAS GARZAS", "area_km2": 0.0408479140625}, "geometry": {"type": "Polygon", "coordinates": [[[-105.460717, 28.185891], [-105.460077, 28.186464], [-105.459588, 28.186902], [-105.459256, 28.187199], [-105.459729, 28.187611], [-105.459934, 28.187789], [-105.460407, 28.188201], [-105.460721, 28.188475], [-105.461027, 28.188203], [-105.461431, 28.187843], [-105.4616, 28.187693], [-105.462171, 28.187185], [-105.46164, 28.186712], [-105.46104, 28.186178], [-105.460717, 28.185891]]]}}, {"type": "Feature", "properties": {"COLONIA": "FRANCISCO VILLA", "area_km2": 0.39623891015625}, "geometry": {"type": "Polygon", "coordinates": [[[-105.462982, 28.170053], [-105.461539, 28.171337], [-105.460085, 28.172629], [-105.460464, 28.172963], [-105.460844, 28.173297], [-105.461218, 28.173627], [-105.461585, 28.173949], [-105.46018, 28.175227], [-105.460468, 28.175461], [-105.460747, 28.175358], [-105.461511, 28.175364], [-105.461751, 28.175362], [-105.461768, 28.175781], [-105.461776, 28.176434], [-105.461779, 28.176656], [-105.462044, 28.176883], [-105.462222, 28.177035], [-105.46237, 28.177161], [-105.464244, 28.176341], [-105.466193, 28.175513], [-105.467158, 28.17511], [-105.46742, 28.174993], [-105.467426, 28.174784], [-105.467441, 28.174155], [-105.467444, 28.174022], [-105.467557, 28.173715], [-105.466723, 28.172202], [-105.466912, 28.171894], [-105.466965, 28.17123], [-105.467002, 28.171114], [-105.466654, 28.170801], [-105.46628, 28.170464], [-105.465897, 28.170119], [-105.465528, 28.169787], [-105.465151, 28.169448], [-105.464772, 28.169144], [-105.463347, 28.170382], [-105.462982, 28.170053]]]}}, {"type": "Feature", "properties": {"COLONIA": "GENESIS", "area_km2": 0.0851796015625}, "geometry": {"type": "Polygon", "coordinates": [[[-105.470655, 28.16243], [-105.471062, 28.162854], [-105.471173, 28.16281], [-105.471642, 28.162142], [-105.472392, 28.161754], [-105.473002, 28.161747], [-105.473006, 28.160985], [-105.472915, 28.161024], [-105.472765, 28.161067], [-105.472305, 28.161164], [-105.47225, 28.161065], [-105.472101, 28.161046], [-105.471546, 28.161429], [-105.471451, 28.161376], [-105.471266, 28.161104], [-105.470937, 28.16088], [-105.470952, 28.160847], [-105.471494, 28.159581], [-105.47161, 28.15931], [-105.471623, 28.15928], [-105.471291, 28.159334], [-105.47118, 28.15903], [-105.469587, 28.159562], [-105.469044, 28.159702], [-105.467884, 28.160101], [-105.468046, 28.160246], [-105.468392, 28.160464], [-105.46962, 28.161456], [-105.469713, 28.161532], [-105.47007, 28.16182], [-105.470389, 28.162153], [-105.470655, 28.16243]]]}}, {"type": "Feature", "properties": {"COLONIA": "HACIENDAS DEL VALLE", "area_km2": 0.159399154296875}, "geometry": {"type": "Polygon", "coordinates": [[[-105.48834, 28.176795], [-105.489095, 28.177496], [-105.489565, 28.177136], [-105.490144, 28.176692], [-105.490696, 28.17627], [-105.491802, 28.175422], [-105.49122, 28.175091], [-105.49058, 28.174727], [-105.489134, 28.173575], [-105.487454, 28.172541], [-105.486908, 28.173024], [-105.486482, 28.1734], [-105.485869, 28.173942], [-105.485462, 28.174302], [-105.48687, 28.17552], [-105.487329, 28.175924], [-105.487928, 28.176442], [-105.48834, 28.176795]]]}}, {"type": "Feature", "properties": {"COLONIA": "IMPERIAL", "area_km2": 0.424352787109375}, "geometry": {"type": "Polygon", "coordinates": [[[-105.477178, 28.206918], [-105.477612, 28.207601], [-105.478062, 28.208318], [-105.478528, 28.209041], [-105.479872, 28.208468], [-105.479984, 28.20842], [-105.481101, 28.207916], [-105.480904, 28.207643], [-105.480601, 28.207221], [-105.480085, 28.206527], [-105.479669, 28.205978], [-105.479566, 28.205842], [-105.479521, 28.205779], [-105.479222, 28.205357], [-105.479058, 28.205127], [-105.478888, 28.204894], [-105.478565, 28.204452], [-105.478182, 28.203957], [-105.477836, 28.203509], [-105.477855, 28.203419], [-105.478073, 28.202437], [-105.478326, 28.201274], [-105.47843, 28.200984], [-105.478583, 28.200126], [-105.478689, 28.199568], [-105.478742, 28.199285], [-105.478951, 28.198247], [-105.479089, 28.197599], [-105.478954, 28.197566], [-105.478672, 28.197353], [-105.478034, 28.196783], [-105.477694, 28.197085], [-105.477395, 28.196804], [-105.476655, 28.197445], [-105.47588, 28.198143], [-105.474553, 28.199336], [-105.473824, 28.199992], [-105.473792, 28.20057], [-105.473798, 28.200667], [-105.473838, 28.201311], [-105.47382, 28.201696], [-105.473835, 28.20256], [-105.474521, 28.203199], [-105.475027, 28.203688], [-105.475192, 28.203902], [-105.47525, 28.203977], [-105.475473, 28.204266], [-105.475743, 28.204671], [-105.475888, 28.204889], [-105.476294, 28.20553], [-105.476707, 28.206179], [-105.478054, 28.205577], [-105.47815, 28.205535], [-105.478609, 28.206246], [-105.478516, 28.206289], [-105.477178, 28.206918]]]}}, {"type": "Feature", "properties": {"COLONIA": "INDEPENDENCIA", "area_km2": 0.075948669921875}, "geometry": {"type": "Polygon", "coordinates": [[[-105.460013, 28.157746], [-105.460281, 28.158706], [-105.460796, 28.15858], [-105.461318, 28.158451], [-105.461858, 28.158319], [-105.461356, 28.156646], [-105.460893, 28.155103], [-105.460293, 28.155114], [-105.459701, 28.155116], [-105.45917, 28.155134], [-105.458623, 28.155153], [-105.458062, 28.155191], [-105.458981, 28.15628], [-105.459653, 28.157066], [-105.459769, 28.157041], [-105.460013, 28.157746]]]}}, {"type": "Feature", "properties": {"COLONIA": "INDUSTRIAL NORTE", "area_km2": 0.2594750859375}, "geometry": {"type": "Polygon", "coordinates": [[[-105.479777, 28.214286], [-105.480097, 28.214269], [-105.480093, 28.21459], [-105.480564, 28.215252], [-105.481078, 28.215861], [-105.481645, 28.215727], [-105.481624, 28.214617], [-105.481329, 28.213614], [-105.481316, 28.213569], [-105.481302, 28.213523], [-105.480772, 28.21258], [-105.480298, 28.211819], [-105.479889, 28.211177], [-105.479656, 28.210812], [-105.479423, 28.210446], [-105.478976, 28.209743], [-105.478528, 28.209041], [-105.478062, 28.208318], [-105.477612, 28.207601], [-105.477178, 28.206918], [-105.476942, 28.206549], [-105.476707, 28.206179], [-105.476294, 28.20553], [-105.475888, 28.204889], [-105.475743, 28.204671], [-105.475473, 28.204266], [-105.47525, 28.203977], [-105.475192, 28.203902], [-105.475027, 28.203688], [-105.474521, 28.203199], [-105.473835, 28.20256], [-105.473819, 28.203719], [-105.473647, 28.203987], [-105.472596, 28.20491], [-105.47314, 28.205442], [-105.47413, 28.206466], [-105.475999, 28.208361], [-105.476615, 28.208955], [-105.477828, 28.210297], [-105.478205, 28.210791], [-105.47851, 28.211195], [-105.478816, 28.211694], [-105.479154, 28.212325], [-105.479482, 28.213066], [-105.479745, 28.21384], [-105.479741, 28.214099], [-105.479777, 28.214286]]]}}, {"type": "Feature", "properties": {"COLONIA": "INDUSTRIAL SUR", "area_km2": 2.1124363515625}, "geometry": {"type": "Polygon", "coordinates": [[[-105.445442, 28.162889], [-105.440128, 28.15755], [-105.439182, 28.1566], [-105.438939, 28.154451], [-105.437758, 28.154656], [-105.436643, 28.153374], [-105.432022, 28.154823], [-105.431918, 28.154855], [-105.434927, 28.159842], [-105.435997, 28.161615], [-105.438137, 28.165352], [-105.439818, 28.168653], [-105.442119, 28.17317], [-105.442641, 28.174195], [-105.443724, 28.175956], [-105.44443, 28.176846], [-105.445143, 28.177683], [-105.445271, 28.177688], [-105.450316, 28.177917], [-105.450318, 28.17688], [-105.450304, 28.173254], [-105.450301, 28.172344], [-105.450302, 28.171017], [-105.450303, 28.170191], [-105.450299, 28.16989], [-105.450377, 28.169744], [-105.450383, 28.168581], [-105.450116, 28.168201], [-105.448758, 28.166264], [-105.44733, 28.164082], [-105.445442, 28.162889]]]}}, {"type": "Feature", "properties": {"COLONIA": "INFONAVIT CIELO VISTA", "area_km2": 0.236620759765625}, "geometry": {"type": "Polygon", "coordinates": [[[-105.446433, 28.188126], [-105.446581, 28.188064], [-105.446777, 28.187668], [-105.446751, 28.187494], [-105.446793, 28.187435], [-105.448049, 28.187251], [-105.448178, 28.187699], [-105.44834, 28.188264], [-105.448773, 28.188219], [-105.448895, 28.188093], [-105.449988, 28.187898], [-105.450459, 28.187744], [-105.45066, 28.187536], [-105.450893, 28.187199], [-105.451021, 28.187034], [-105.451496, 28.186901], [-105.451989, 28.186762], [-105.451969, 28.186458], [-105.451948, 28.186134], [-105.451761, 28.185319], [-105.451707, 28.185093], [-105.451491, 28.184593], [-105.451231, 28.1841], [-105.450717, 28.183423], [-105.450653, 28.183587], [-105.450893, 28.183932], [-105.450908, 28.184081], [-105.450558, 28.184431], [-105.450208, 28.184782], [-105.449784, 28.18497], [-105.449526, 28.184501], [-105.449286, 28.184063], [-105.449049, 28.183631], [-105.4488, 28.183178], [-105.447364, 28.183801], [-105.44613, 28.184336], [-105.445644, 28.184547], [-105.44517, 28.184753], [-105.445362, 28.185124], [-105.445546, 28.185478], [-105.445728, 28.18583], [-105.445924, 28.186208], [-105.445508, 28.186389], [-105.445712, 28.186764], [-105.445899, 28.187111], [-105.446086, 28.187458], [-105.446267, 28.187792], [-105.446384, 28.188009], [-105.446433, 28.188126]]]}}, {"type": "Feature", "properties": {"COLONIA": "INFONAVIT DELICIAS SUR", "area_km2": 0.155248501953125}, "geometry": {"type": "Polygon", "coordinates": [[[-105.450383, 28.168581], [-105.450429, 28.168534], [-105.450691, 28.168388], [-105.4511, 28.168161], [-105.451111, 28.168663], [-105.451544, 28.168658], [-105.45192, 28.168653], [-105.452335, 28.168647], [-105.452766, 28.168639], [-105.45315, 28.168633], [-105.453219, 28.168603], [-105.453199, 28.167555], [-105.453208, 28.166526], [-105.453186, 28.164765], [-105.453078, 28.164803], [-105.452733, 28.164923], [-105.451394, 28.165353], [-105.450864, 28.165523], [-105.450671, 28.165593], [-105.450302, 28.165703], [-105.449969, 28.16582], [-105.449756, 28.165895], [-105.449697, 28.165809], [-105.449629, 28.165706], [-105.448745, 28.16437], [-105.448605, 28.164138], [-105.448567, 28.164023], [-105.447784, 28.16406], [-105.44733, 28.164082], [-105.448758, 28.166264], [-105.450116, 28.168201], [-105.450383, 28.168581]]]}}, {"type": "Feature", "properties": {"COLONIA": "INFONAVIT LOS NOGALES", "area_km2": 0.121745923828125}, "geometry": {"type": "Polygon", "coordinates": [[[-105.442177, 28.187986], [-105.442724, 28.187967], [-105.443272, 28.187947], [-105.443554, 28.187927], [-105.443857, 28.187996], [-105.444359, 28.188246], [-105.444887, 28.188512], [-105.445894, 28.189047], [-105.44607, 28.18875], [-105.446298, 28.188366], [-105.446433, 28.188126], [-105.446384, 28.188009], [-105.446267, 28.187792], [-105.446086, 28.187458], [-105.445899, 28.187111], [-105.445712, 28.186764], [-105.445508, 28.186389], [-105.445924, 28.186208], [-105.445728, 28.18583], [-105.445546, 28.185478], [-105.445362, 28.185124], [-105.44517, 28.184753], [-105.443629, 28.185422], [-105.442767, 28.185704], [-105.442094, 28.185754], [-105.442148, 28.187496], [-105.442177, 28.187986]]]}}, {"type": "Feature", "properties": {"COLONIA": "LA LABOR", "area_km2": 0.233658103515625}, "geometry": {"type": "Polygon", "coordinates": [[[-105.443326, 28.209221], [-105.444088, 28.211033], [-105.445287, 28.210541], [-105.447244, 28.209738], [-105.447567, 28.209603], [-105.448331, 28.209275], [-105.448563, 28.209098], [-105.448391, 28.20863], [-105.448182, 28.208034], [-105.44719, 28.208457], [-105.447209, 28.207992], [-105.447221, 28.207682], [-105.447247, 28.207028], [-105.447256, 28.206799], [-105.447306, 28.205535], [-105.44732, 28.205177], [-105.447659, 28.205177], [-105.448145, 28.205178], [-105.448113, 28.20491], [-105.448106, 28.204622], [-105.448011, 28.204622], [-105.446797, 28.204628], [-105.445462, 28.204638], [-105.445436, 28.204937], [-105.445435, 28.205181], [-105.445432, 28.206078], [-105.444893, 28.206078], [-105.444363, 28.206078], [-105.443929, 28.206078], [-105.443207, 28.206078], [-105.443212, 28.20631], [-105.443212, 28.20635], [-105.443219, 28.206726], [-105.443227, 28.207161], [-105.443228, 28.207193], [-105.443235, 28.207593], [-105.443236, 28.207634], [-105.443243, 28.208044], [-105.443276, 28.20871], [-105.443326, 28.209221]]]}}, {"type": "Feature", "properties": {"COLONIA": "LA SALLE", "area_km2": 0.033945908203125}, "geometry": {"type": "Polygon", "coordinates": [[[-105.471488, 28.169395], [-105.473249, 28.169406], [-105.473717, 28.169253], [-105.473719, 28.168638], [-105.47372, 28.168263], [-105.473073, 28.167875], [-105.472424, 28.16787], [-105.471441, 28.167864], [-105.471436, 28.168262], [-105.471431, 28.168619], [-105.471687, 28.168621], [-105.471818, 28.168976], [-105.471488, 28.169395]]]}}, {"type": "Feature", "properties": {"COLONIA": "LADERAS DEL NORTE", "area_km2": 0.322545517578125}, "geometry": {"type": "Polygon", "coordinates": [[[-105.424434, 28.181829], [-105.423617, 28.181826], [-105.422975, 28.182256], [-105.422543, 28.182564], [-105.422389, 28.182822], [-105.422194, 28.18324], [-105.422069, 28.183548], [-105.421762, 28.184064], [-105.421608, 28.184372], [-105.421845, 28.18463], [-105.422124, 28.185122], [-105.422348, 28.185663], [-105.422585, 28.18613], [-105.422808, 28.186536], [-105.422872, 28.186715], [-105.422646, 28.186706], [-105.424373, 28.190738], [-105.424726, 28.191622], [-105.425098, 28.192053], [-105.425599, 28.192294], [-105.425733, 28.192291], [-105.425785, 28.191376], [-105.426422, 28.191349], [-105.42642, 28.188951], [-105.42573, 28.188965], [-105.425731, 28.188263], [-105.425748, 28.18784], [-105.42575, 28.187423], [-105.425755, 28.187058], [-105.425748, 28.186625], [-105.42702, 28.186616], [-105.426849, 28.186262], [-105.426696, 28.18592], [-105.426541, 28.18553], [-105.426399, 28.185205], [-105.426215, 28.184796], [-105.426051, 28.184433], [-105.42587, 28.184002], [-105.425713, 28.183642], [-105.425583, 28.183305], [-105.425422, 28.182916], [-105.425265, 28.182587], [-105.424953, 28.182208], [-105.424434, 28.181829]]]}}, {"type": "Feature", "properties": {"COLONIA": "LADERAS DEL VALLE", "area_km2": 0.0916542890625}, "geometry": {"type": "Polygon", "coordinates": [[[-105.473715, 28.159563], [-105.473978, 28.159561], [-105.47424, 28.159559], [-105.474987, 28.159544], [-105.47593, 28.159525], [-105.476293, 28.157548], [-105.476245, 28.156693], [-105.475219, 28.15602], [-105.474925, 28.156025], [-105.474181, 28.156038], [-105.473636, 28.156048], [-105.473657, 28.156962], [-105.473665, 28.157311], [-105.473673, 28.157969], [-105.473686, 28.15827], [-105.473715, 28.159563]]]}}, {"type": "Feature", "properties": {"COLONIA": "LAS FLORES", "area_km2": 0.030629529296875}, "geometry": {"type": "Polygon", "coordinates": [[[-105.4488, 28.183178], [-105.449049, 28.183631], [-105.449286, 28.184063], [-105.449526, 28.184501], [-105.449784, 28.18497], [-105.450208, 28.184782], [-105.450558, 28.184431], [-105.450908, 28.184081], [-105.450893, 28.183932], [-105.450653, 28.183587], [-105.450717, 28.183423], [-105.449877, 28.182548], [-105.44962, 28.182674], [-105.449291, 28.182969], [-105.448915, 28.183129], [-105.4488, 28.183178]]]}}, {"type": "Feature", "properties": {"COLONIA": "LAS HUERTAS", "area_km2": 0.282525634765625}, "geometry": {"type": "Polygon", "coordinates": [[[-105.473073, 28.167875], [-105.47372, 28.168263], [-105.473721, 28.167929], [-105.473724, 28.167091], [-105.473727, 28.166311], [-105.473728, 28.166139], [-105.473733, 28.164689], [-105.473734, 28.164372], [-105.473738, 28.163089], [-105.47374, 28.162611], [-105.473746, 28.160937], [-105.473715, 28.159563], [-105.473686, 28.15827], [-105.473156, 28.158418], [-105.472715, 28.158541], [-105.472281, 28.158662], [-105.47118, 28.15903], [-105.471291, 28.159334], [-105.471623, 28.15928], [-105.47161, 28.15931], [-105.471494, 28.159581], [-105.470952, 28.160847], [-105.470937, 28.16088], [-105.471266, 28.161104], [-105.471451, 28.161376], [-105.471546, 28.161429], [-105.472101, 28.161046], [-105.47225, 28.161065], [-105.472305, 28.161164], [-105.472765, 28.161067], [-105.472915, 28.161024], [-105.473006, 28.160985], [-105.473002, 28.161747], [-105.472392, 28.161754], [-105.471642, 28.162142], [-105.471173, 28.16281], [-105.471062, 28.162854], [-105.470655, 28.16243], [-105.470206, 28.162809], [-105.469886, 28.163162], [-105.469159, 28.163964], [-105.468691, 28.16378], [-105.468462, 28.163584], [-105.46832, 28.163462], [-105.467846, 28.163055], [-105.467487, 28.163364], [-105.468008, 28.163785], [-105.468632, 28.16429], [-105.469594, 28.164992], [-105.469916, 28.16522], [-105.469995, 28.165276], [-105.470396, 28.16556], [-105.470789, 28.165839], [-105.471008, 28.165994], [-105.471647, 28.166576], [-105.471902, 28.166808], [-105.472613, 28.167456], [-105.473073, 28.167875]]]}}, {"type": "Feature", "properties": {"COLONIA": "LAS HUERTAS IV ETAPA", "area_km2": 0.282525634765625}, "geometry": {"type": "Polygon", "coordinates": [[[-105.473073, 28.167875], [-105.47372, 28.168263], [-105.473721, 28.167929], [-105.473724, 28.167091], [-105.473727, 28.166311], [-105.473728, 28.166139], [-105.473733, 28.164689], [-105.473734, 28.164372], [-105.473738, 28.163089], [-105.47374, 28.162611], [-105.473746, 28.160937], [-105.473715, 28.159563], [-105.473686, 28.15827], [-105.473156, 28.158418], [-105.472715, 28.158541], [-105.472281, 28.158662], [-105.47118, 28.15903], [-105.471291, 28.159334], [-105.471623, 28.15928], [-105.47161, 28.15931], [-105.471494, 28.159581], [-105.470952, 28.160847], [-105.470937, 28.16088], [-105.471266, 28.161104], [-105.471451, 28.161376], [-105.471546, 28.161429], [-105.472101, 28.161046], [-105.47225, 28.161065], [-105.472305, 28.161164], [-105.472765, 28.161067], [-105.472915, 28.161024], [-105.473006, 28.160985], [-105.473002, 28.161747], [-105.472392, 28.161754], [-105.471642, 28.162142], [-105.471173, 28.16281], [-105.471062, 28.162854], [-105.470655, 28.16243], [-105.470206, 28.162809], [-105.469886, 28.163162], [-105.469159, 28.163964], [-105.468691, 28.16378], [-105.468462, 28.163584], [-105.46832, 28.163462], [-105.467846, 28.163055], [-105.467487, 28.163364], [-105.468008, 28.163785], [-105.468632, 28.16429], [-105.469594, 28.164992], [-105.469916, 28.16522], [-105.469995, 28.165276], [-105.470396, 28.16556], [-105.470789, 28.165839], [-105.471008, 28.165994], [-105.471647, 28.166576], [-105.471902, 28.166808], [-105.472613, 28.167456], [-105.473073, 28.167875]]]}}, {"type": "Feature", "properties": {"COLONIA": "LAS MISIONES", "area_km2": 0.0346094609375}, "geometry": {"type": "Polygon", "coordinates": [[[-105.468231, 28.203715], [-105.469008, 28.204473], [-105.470075, 28.203684], [-105.470348, 28.203488], [-105.469915, 28.203063], [-105.469844, 28.202994], [-105.469875, 28.202791], [-105.469181, 28.202787], [-105.467821, 28.202779], [-105.467451, 28.20278], [-105.467219, 28.20272], [-105.467153, 28.202824], [-105.46712, 28.20301], [-105.467095, 28.203065], [-105.467116, 28.203086], [-105.467286, 28.203245], [-105.46783, 28.203755], [-105.46805, 28.203538], [-105.468231, 28.203715]]]}}, {"type": "Feature", "properties": {"COLONIA": "LAS MORAS", "area_km2": 0.054002751953125}, "geometry": {"type": "Polygon", "coordinates": [[[-105.457132, 28.157364], [-105.457586, 28.157424], [-105.45805, 28.157486], [-105.458516, 28.157547], [-105.458967, 28.157607], [-105.459434, 28.157669], [-105.460013, 28.157746], [-105.459769, 28.157041], [-105.459653, 28.157066], [-105.458981, 28.15628], [-105.458062, 28.155191], [-105.457743, 28.155484], [-105.457308, 28.155915], [-105.456751, 28.156407], [-105.456185, 28.156912], [-105.455864, 28.157217], [-105.45615, 28.157249], [-105.456629, 28.157298], [-105.457132, 28.157364]]]}}, {"type": "Feature", "properties": {"COLONIA": "LAS PALMAS", "area_km2": 0.41071559765625}, "geometry": {"type": "Polygon", "coordinates": [[[-105.461858, 28.158319], [-105.46236, 28.159991], [-105.462591, 28.160758], [-105.462895, 28.160848], [-105.46389, 28.161134], [-105.464413, 28.160946], [-105.464534, 28.160903], [-105.464807, 28.160545], [-105.464952, 28.160113], [-105.465081, 28.159685], [-105.465211, 28.159254], [-105.465323, 28.158864], [-105.465455, 28.158444], [-105.465573, 28.15807], [-105.465678, 28.157736], [-105.465791, 28.15738], [-105.465904, 28.157023], [-105.465898, 28.156914], [-105.46625, 28.156886], [-105.466521, 28.156858], [-105.466829, 28.156808], [-105.466469, 28.155641], [-105.466338, 28.154557], [-105.466034, 28.152032], [-105.460185, 28.153032], [-105.460747, 28.154668], [-105.460893, 28.155103], [-105.461356, 28.156646], [-105.461858, 28.158319]]]}}, {"type": "Feature", "properties": {"COLONIA": "LAS TORRES", "area_km2": 0.339582107421875}, "geometry": {"type": "Polygon", "coordinates": [[[-105.433144, 28.181861], [-105.433368, 28.182117], [-105.433376, 28.18397], [-105.43337, 28.184379], [-105.433368, 28.184771], [-105.433366, 28.18512], [-105.433353, 28.185862], [-105.433348, 28.186209], [-105.435443, 28.186184], [-105.435422, 28.186635], [-105.435482, 28.186634], [-105.436132, 28.186627], [-105.436322, 28.186625], [-105.436567, 28.18662], [-105.436811, 28.186616], [-105.437045, 28.18663], [-105.437293, 28.186632], [-105.438566, 28.186626], [-105.438581, 28.187077], [-105.43876, 28.187144], [-105.43907, 28.187007], [-105.43959, 28.186778], [-105.439857, 28.186661], [-105.440053, 28.186574], [-105.440027, 28.184342], [-105.440006, 28.182869], [-105.440002, 28.182081], [-105.440003, 28.18186], [-105.43998, 28.181864], [-105.439608, 28.181858], [-105.439542, 28.181863], [-105.439476, 28.181868], [-105.439071, 28.181867], [-105.439023, 28.181865], [-105.438978, 28.181863], [-105.438589, 28.181852], [-105.438553, 28.18185], [-105.437264, 28.18184], [-105.437215, 28.181838], [-105.436817, 28.18183], [-105.436777, 28.181829], [-105.436736, 28.181828], [-105.436372, 28.181825], [-105.436313, 28.181828], [-105.436276, 28.181827], [-105.436108, 28.181823], [-105.436053, 28.181824], [-105.435942, 28.181827], [-105.435943, 28.181872], [-105.433144, 28.181861]]]}}, {"type": "Feature", "properties": {"COLONIA": "LAS VIRGENES", "area_km2": 0.05971193359375}, "geometry": {"type": "Polygon", "coordinates": [[[-105.445192, 28.19023], [-105.445268, 28.190245], [-105.445945, 28.190575], [-105.446418, 28.190807], [-105.446718, 28.190501], [-105.447005, 28.190161], [-105.447112, 28.189995], [-105.447218, 28.18983], [-105.447478, 28.189428], [-105.447586, 28.18926], [-105.447706, 28.189073], [-105.447948, 28.188698], [-105.4482, 28.188307], [-105.44834, 28.188264], [-105.448178, 28.187699], [-105.448049, 28.187251], [-105.446793, 28.187435], [-105.446751, 28.187494], [-105.446777, 28.187668], [-105.446581, 28.188064], [-105.446433, 28.188126], [-105.446298, 28.188366], [-105.44607, 28.18875], [-105.445894, 28.189047], [-105.445837, 28.189143], [-105.445628, 28.189495], [-105.445418, 28.189848], [-105.445192, 28.19023]]]}}, {"type": "Feature", "properties": {"COLONIA": "LINDA VISTA", "area_km2": 0.39092325390625}, "geometry": {"type": "Polygon", "coordinates": [[[-105.462982, 28.170053], [-105.463347, 28.170382], [-105.464772, 28.169144], [-105.466222, 28.167842], [-105.467415, 28.166773], [-105.467123, 28.166383], [-105.466812, 28.165974], [-105.466535, 28.165568], [-105.466067, 28.164632], [-105.465849, 28.164191], [-105.465403, 28.164586], [-105.465016, 28.164242], [-105.464651, 28.163917], [-105.464283, 28.16359], [-105.463887, 28.163237], [-105.463526, 28.162916], [-105.463137, 28.162549], [-105.46306, 28.162494], [-105.462577, 28.162048], [-105.46239, 28.161866], [-105.461898, 28.162007], [-105.461788, 28.161769], [-105.461273, 28.161921], [-105.460773, 28.16209], [-105.460845, 28.162299], [-105.460241, 28.162555], [-105.46106, 28.163325], [-105.461245, 28.163497], [-105.461029, 28.163649], [-105.460888, 28.163849], [-105.460912, 28.164438], [-105.460918, 28.164592], [-105.460944, 28.165237], [-105.460679, 28.165488], [-105.461019, 28.165803], [-105.460665, 28.166134], [-105.460468, 28.166318], [-105.45999, 28.166766], [-105.459635, 28.167098], [-105.459977, 28.167406], [-105.46035, 28.167743], [-105.460729, 28.168084], [-105.461097, 28.168417], [-105.461474, 28.168736], [-105.461851, 28.169055], [-105.462223, 28.16937], [-105.462619, 28.169727], [-105.462982, 28.170053]]]}}, {"type": "Feature", "properties": {"COLONIA": "LOS GIRASOLES", "area_km2": 0.108038140625}, "geometry": {"type": "Polygon", "coordinates": [[[-105.467415, 28.166773], [-105.467584, 28.166913], [-105.46799, 28.166525], [-105.468307, 28.166222], [-105.46863, 28.165913], [-105.46896, 28.165597], [-105.469366, 28.165209], [-105.469594, 28.164992], [-105.468632, 28.16429], [-105.468008, 28.163785], [-105.467487, 28.163364], [-105.466514, 28.162551], [-105.465356, 28.161764], [-105.465246, 28.161995], [-105.465087, 28.162432], [-105.464886, 28.162478], [-105.465052, 28.16291], [-105.465276, 28.163358], [-105.465535, 28.163776], [-105.465849, 28.164191], [-105.466067, 28.164632], [-105.466535, 28.165568], [-105.466812, 28.165974], [-105.467123, 28.166383], [-105.467415, 28.166773]]]}}, {"type": "Feature", "properties": {"COLONIA": "LOS JAZMINES", "area_km2": 0.02265559765625}, "geometry": {"type": "Polygon", "coordinates": [[[-105.46832, 28.163462], [-105.468462, 28.163584], [-105.468691, 28.16378], [-105.469159, 28.163964], [-105.469886, 28.163162], [-105.470206, 28.162809], [-105.470655, 28.16243], [-105.470389, 28.162153], [-105.47007, 28.16182], [-105.4698, 28.161987], [-105.469616, 28.16217], [-105.469052, 28.162732], [-105.468686, 28.163097], [-105.46832, 28.163462]]]}}, {"type": "Feature", "properties": {"COLONIA": "LOS NOGALES", "area_km2": 0.14182365234375}, "geometry": {"type": "Polygon", "coordinates": [[[-105.481101, 28.207916], [-105.481305, 28.208174], [-105.481748, 28.208744], [-105.483698, 28.211389], [-105.483855, 28.211506], [-105.484012, 28.211623], [-105.484265, 28.210306], [-105.484676, 28.208168], [-105.485118, 28.207182], [-105.484808, 28.206991], [-105.484738, 28.206949], [-105.483983, 28.206804], [-105.483312, 28.206676], [-105.482657, 28.20655], [-105.482282, 28.206478], [-105.482024, 28.206429], [-105.481758, 28.206378], [-105.481272, 28.206285], [-105.480665, 28.206169], [-105.480034, 28.206048], [-105.479669, 28.205978], [-105.480085, 28.206527], [-105.480601, 28.207221], [-105.480904, 28.207643], [-105.481101, 28.207916]]]}}, {"type": "Feature", "properties": {"COLONIA": "LOS PINOS", "area_km2": 0.02002477734375}, "geometry": {"type": "Polygon", "coordinates": [[[-105.460721, 28.188475], [-105.460355, 28.188801], [-105.460004, 28.189113], [-105.46149, 28.190416], [-105.461526, 28.190325], [-105.461808, 28.190071], [-105.462175, 28.189741], [-105.461115, 28.188818], [-105.460721, 28.188475]]]}}, {"type": "Feature", "properties": {"COLONIA": "LOTES URBANOS", "area_km2": 3.289893244140625}, "geometry": {"type": "Polygon", "coordinates": [[[-105.462491, 28.213158], [-105.462634, 28.213276], [-105.463031, 28.212957], [-105.463365, 28.213218], [-105.464126, 28.213799], [-105.46491, 28.21442], [-105.465404, 28.214811], [-105.465292, 28.215136], [-105.46578, 28.215909], [-105.466153, 28.215864], [-105.468055, 28.217882], [-105.468382, 28.217645], [-105.468759, 28.218067], [-105.469099, 28.218468], [-105.470501, 28.217499], [-105.470093, 28.217068], [-105.469705, 28.216658], [-105.469033, 28.215948], [-105.469921, 28.215386], [-105.468308, 28.213914], [-105.468615, 28.213599], [-105.468576, 28.213579], [-105.468564, 28.213573], [-105.467835, 28.213199], [-105.467816, 28.213189], [-105.467771, 28.213166], [-105.467724, 28.213142], [-105.466953, 28.212747], [-105.466934, 28.212737], [-105.466844, 28.21269], [-105.467028, 28.212503], [-105.46724, 28.212289], [-105.467601, 28.211922], [-105.467234, 28.211589], [-105.466867, 28.211256], [-105.466577, 28.210993], [-105.466519, 28.21094], [-105.466195, 28.210646], [-105.465849, 28.210381], [-105.465452, 28.210076], [-105.465375, 28.209868], [-105.465322, 28.208871], [-105.465418, 28.208776], [-105.464714, 28.208164], [-105.464801, 28.207964], [-105.46513, 28.207204], [-105.465337, 28.206724], [-105.465409, 28.206771], [-105.465902, 28.205508], [-105.466031, 28.205468], [-105.466076, 28.205351], [-105.466433, 28.204552], [-105.466506, 28.204388], [-105.467071, 28.203121], [-105.467095, 28.203065], [-105.46712, 28.20301], [-105.467153, 28.202824], [-105.467219, 28.20272], [-105.467451, 28.20278], [-105.467821, 28.202779], [-105.469181, 28.202787], [-105.469875, 28.202791], [-105.469844, 28.202994], [-105.469915, 28.203063], [-105.470311, 28.202966], [-105.470593, 28.202896], [-105.470136, 28.202433], [-105.469247, 28.201527], [-105.468553, 28.200834], [-105.46787, 28.200175], [-105.467153, 28.199517], [-105.464469, 28.19699], [-105.463202, 28.195664], [-105.462567, 28.194929], [-105.462175, 28.194931], [-105.460057, 28.194955], [-105.457865, 28.19498], [-105.457075, 28.194988], [-105.452605, 28.194968], [-105.45306, 28.200464], [-105.453377, 28.204221], [-105.453416, 28.204692], [-105.453514, 28.205869], [-105.453531, 28.206075], [-105.453548, 28.20628], [-105.453079, 28.206447], [-105.452856, 28.206534], [-105.45167, 28.207042], [-105.451029, 28.207309], [-105.450421, 28.207577], [-105.44998, 28.207882], [-105.449634, 28.208128], [-105.449386, 28.208375], [-105.449065, 28.208693], [-105.448563, 28.209098], [-105.448331, 28.209275], [-105.447567, 28.209603], [-105.447244, 28.209738], [-105.445287, 28.210541], [-105.444088, 28.211033], [-105.443337, 28.211341], [-105.442597, 28.211645], [-105.445211, 28.213073], [-105.445857, 28.212816], [-105.445929, 28.213072], [-105.445769, 28.213845], [-105.445936, 28.216858], [-105.446732, 28.217012], [-105.447971, 28.217257], [-105.456628, 28.218499], [-105.455896, 28.216102], [-105.454909, 28.212868], [-105.454758, 28.212374], [-105.454617, 28.211913], [-105.453978, 28.209819], [-105.453816, 28.208488], [-105.453763, 28.208049], [-105.45372, 28.207697], [-105.453863, 28.207686], [-105.453926, 28.20725], [-105.454067, 28.206952], [-105.45497, 28.207408], [-105.457205, 28.207042], [-105.459062, 28.206738], [-105.459065, 28.206812], [-105.459019, 28.207943], [-105.459258, 28.207924], [-105.459865, 28.208663], [-105.460361, 28.209495], [-105.460853, 28.210353], [-105.460647, 28.21054], [-105.460361, 28.210801], [-105.461461, 28.212279], [-105.462211, 28.21293], [-105.462274, 28.212982], [-105.462446, 28.213122], [-105.462491, 28.213158]]]}}, {"type": "Feature", "properties": {"COLONIA": "MAGISTERIAL COL.", "area_km2": 0.16353358984375}, "geometry": {"type": "Polygon", "coordinates": [[[-105.483878, 28.183449], [-105.484701, 28.184146], [-105.485303, 28.184656], [-105.485835, 28.184181], [-105.486363, 28.18372], [-105.486944, 28.183214], [-105.487463, 28.182747], [-105.488019, 28.182246], [-105.488557, 28.181762], [-105.489112, 28.181262], [-105.489658, 28.180787], [-105.490181, 28.180297], [-105.490737, 28.179812], [-105.491009, 28.179581], [-105.49125, 28.179372], [-105.49061, 28.178818], [-105.49005, 28.178384], [-105.489742, 28.178118], [-105.489633, 28.178224], [-105.489596, 28.178259], [-105.489216, 28.178609], [-105.488739, 28.179034], [-105.488262, 28.179459], [-105.487656, 28.179999], [-105.487133, 28.180465], [-105.486799, 28.180762], [-105.486566, 28.180974], [-105.486405, 28.181121], [-105.486038, 28.181491], [-105.485396, 28.182073], [-105.484945, 28.182482], [-105.484387, 28.182988], [-105.483878, 28.183449]]]}}, {"type": "Feature", "properties": {"COLONIA": "MIGUEL HIDALGO", "area_km2": 0.614838607421875}, "geometry": {"type": "Polygon", "coordinates": [[[-105.396549, 28.147109], [-105.396503, 28.147542], [-105.396201, 28.147769], [-105.396139, 28.148328], [-105.395989, 28.149086], [-105.395382, 28.1499], [-105.394436, 28.15071], [-105.393581, 28.150978], [-105.392729, 28.15105], [-105.392676, 28.151639], [-105.392601, 28.152471], [-105.392324, 28.154986], [-105.393187, 28.154972], [-105.394049, 28.154957], [-105.394843, 28.154944], [-105.395701, 28.154929], [-105.396589, 28.154914], [-105.396841, 28.15491], [-105.397455, 28.154899], [-105.398285, 28.154885], [-105.399125, 28.154871], [-105.400176, 28.154853], [-105.400315, 28.153159], [-105.400375, 28.152352], [-105.400582, 28.15063], [-105.400778, 28.149003], [-105.400972, 28.147394], [-105.40114, 28.146], [-105.400103, 28.146003], [-105.400112, 28.145365], [-105.39786, 28.145317], [-105.397752, 28.14601], [-105.397557, 28.14601], [-105.396986, 28.146012], [-105.396549, 28.147109]]]}}, {"type": "Feature", "properties": {"COLONIA": "MIRADOR", "area_km2": 0.122838515625}, "geometry": {"type": "Polygon", "coordinates": [[[-105.467718, 28.159919], [-105.467884, 28.160101], [-105.469044, 28.159702], [-105.469587, 28.159562], [-105.47118, 28.15903], [-105.472281, 28.158662], [-105.472715, 28.158541], [-105.473156, 28.158418], [-105.473686, 28.15827], [-105.473673, 28.157969], [-105.473665, 28.157311], [-105.473657, 28.156962], [-105.473636, 28.156048], [-105.473622, 28.155401], [-105.472308, 28.155772], [-105.472205, 28.155842], [-105.471429, 28.156468], [-105.471285, 28.156586], [-105.471244, 28.15662], [-105.471187, 28.156665], [-105.470544, 28.157218], [-105.470483, 28.15727], [-105.470422, 28.157322], [-105.469767, 28.157881], [-105.46971, 28.15793], [-105.469668, 28.157968], [-105.469223, 28.158388], [-105.469134, 28.158478], [-105.469087, 28.158525], [-105.468975, 28.158638], [-105.46835, 28.159585], [-105.468262, 28.159729], [-105.467718, 28.159919]]]}}, {"type": "Feature", "properties": {"COLONIA": "NUEVO DELICIAS", "area_km2": 0.155248501953125}, "geometry": {"type": "Polygon", "coordinates": [[[-105.450383, 28.168581], [-105.450429, 28.168534], [-105.450691, 28.168388], [-105.4511, 28.168161], [-105.451111, 28.168663], [-105.451544, 28.168658], [-105.45192, 28.168653], [-105.452335, 28.168647], [-105.452766, 28.168639], [-105.45315, 28.168633], [-105.453219, 28.168603], [-105.453199, 28.167555], [-105.453208, 28.166526], [-105.453186, 28.164765], [-105.453078, 28.164803], [-105.452733, 28.164923], [-105.451394, 28.165353], [-105.450864, 28.165523], [-105.450671, 28.165593], [-105.450302, 28.165703], [-105.449969, 28.16582], [-105.449756, 28.165895], [-105.449697, 28.165809], [-105.449629, 28.165706], [-105.448745, 28.16437], [-105.448605, 28.164138], [-105.448567, 28.164023], [-105.447784, 28.16406], [-105.44733, 28.164082], [-105.448758, 28.166264], [-105.450116, 28.168201], [-105.450383, 28.168581]]]}}, {"type": "Feature", "properties": {"COLONIA": "OBRERA", "area_km2": 0.7310283125}, "geometry": {"type": "Polygon", "coordinates": [[[-105.448106, 28.204622], [-105.449387, 28.204615], [-105.450502, 28.204609], [-105.451913, 28.204602], [-105.45199, 28.204311], [-105.453171, 28.204235], [-105.453377, 28.204221], [-105.45306, 28.200464], [-105.452605, 28.194968], [-105.452504, 28.194964], [-105.452019, 28.194962], [-105.451071, 28.19496], [-105.450072, 28.194957], [-105.449124, 28.194955], [-105.44844, 28.194953], [-105.448135, 28.194952], [-105.448062, 28.19507], [-105.447972, 28.197189], [-105.448505, 28.197824], [-105.448707, 28.198064], [-105.448505, 28.199252], [-105.448763, 28.200158], [-105.448801, 28.200289], [-105.448606, 28.200193], [-105.44317, 28.200269], [-105.443185, 28.20079], [-105.443177, 28.201846], [-105.443163, 28.202466], [-105.443158, 28.2039], [-105.443181, 28.204656], [-105.443432, 28.204654], [-105.445462, 28.204638], [-105.446797, 28.204628], [-105.448011, 28.204622], [-105.448106, 28.204622]]]}}, {"type": "Feature", "properties": {"COLONIA": "PASEO LAS VIRGENES", "area_km2": 0.136543166015625}, "geometry": {"type": "Polygon", "coordinates": [[[-105.440003, 28.18186], [-105.440002, 28.182081], [-105.440006, 28.182869], [-105.440027, 28.184342], [-105.440053, 28.186574], [-105.440515, 28.18637], [-105.441019, 28.186148], [-105.441531, 28.185922], [-105.442094, 28.185754], [-105.442767, 28.185704], [-105.442598, 28.185359], [-105.442584, 28.184787], [-105.442991, 28.184777], [-105.442974, 28.18433], [-105.443312, 28.18432], [-105.443307, 28.182862], [-105.443321, 28.182033], [-105.442992, 28.182021], [-105.442591, 28.182038], [-105.442049, 28.182047], [-105.44205, 28.181819], [-105.44129, 28.181835], [-105.441058, 28.181846], [-105.440985, 28.181848], [-105.44095, 28.181843], [-105.440568, 28.181852], [-105.44052, 28.181852], [-105.440468, 28.181852], [-105.440093, 28.181859], [-105.440003, 28.18186]]]}}, {"type": "Feature", "properties": {"COLONIA": "PRI", "area_km2": 0.122832560546875}, "geometry": {"type": "Polygon", "coordinates": [[[-105.459229, 28.162332], [-105.459301, 28.162607], [-105.459763, 28.162446], [-105.460246, 28.162268], [-105.460773, 28.16209], [-105.461273, 28.161921], [-105.461788, 28.161769], [-105.462291, 28.161617], [-105.462793, 28.161469], [-105.46389, 28.161134], [-105.462895, 28.160848], [-105.462591, 28.160758], [-105.46236, 28.159991], [-105.461858, 28.158319], [-105.461318, 28.158451], [-105.460796, 28.15858], [-105.460281, 28.158706], [-105.459888, 28.158803], [-105.459724, 28.158719], [-105.459573, 28.159605], [-105.45912, 28.159553], [-105.45895, 28.160568], [-105.45939, 28.160627], [-105.459493, 28.16069], [-105.459346, 28.160923], [-105.458997, 28.161555], [-105.459229, 28.162332]]]}}, {"type": "Feature", "properties": {"COLONIA": "PROGRESO", "area_km2": 0.20478447265625}, "geometry": {"type": "Polygon", "coordinates": [[[-105.438927, 28.209285], [-105.439869, 28.209282], [-105.439906, 28.208687], [-105.439971, 28.208197], [-105.440041, 28.207709], [-105.440066, 28.207567], [-105.440131, 28.207186], [-105.440205, 28.206691], [-105.440261, 28.206325], [-105.440285, 28.206175], [-105.440357, 28.20567], [-105.44041, 28.205259], [-105.440421, 28.205169], [-105.440468, 28.204816], [-105.441738, 28.204813], [-105.443184, 28.204809], [-105.443181, 28.204656], [-105.443158, 28.2039], [-105.443163, 28.202466], [-105.443177, 28.201846], [-105.437781, 28.201956], [-105.438064, 28.202441], [-105.438291, 28.202797], [-105.438336, 28.202871], [-105.438542, 28.203223], [-105.439234, 28.204405], [-105.43893, 28.204572], [-105.438937, 28.205158], [-105.438927, 28.205668], [-105.438931, 28.206173], [-105.438919, 28.20668], [-105.43891, 28.207176], [-105.438912, 28.207698], [-105.438929, 28.208192], [-105.438919, 28.208694], [-105.438927, 28.209285]]]}}, {"type": "Feature", "properties": {"COLONIA": "QUINTAS MARIANAS", "area_km2": 0.29476579296875}, "geometry": {"type": "Polygon", "coordinates": [[[-105.44317, 28.200269], [-105.448606, 28.200193], [-105.448801, 28.200289], [-105.448763, 28.200158], [-105.448505, 28.199252], [-105.448707, 28.198064], [-105.448505, 28.197824], [-105.447972, 28.197189], [-105.448062, 28.19507], [-105.448135, 28.194952], [-105.447147, 28.194948], [-105.446179, 28.194945], [-105.44521, 28.194942], [-105.444271, 28.194938], [-105.443273, 28.194935], [-105.443269, 28.195057], [-105.443248, 28.195481], [-105.443226, 28.195907], [-105.443206, 28.196308], [-105.443185, 28.196729], [-105.44318, 28.197155], [-105.443171, 28.197532], [-105.443153, 28.197942], [-105.443144, 28.198379], [-105.443129, 28.198802], [-105.443165, 28.200069], [-105.44317, 28.200269]]]}}, {"type": "Feature", "properties": {"COLONIA": "RESIDENCIAL DEL BOSQUE", "area_km2": 0.078787734375}, "geometry": {"type": "Polygon", "coordinates": [[[-105.462171, 28.187185], [-105.462562, 28.187533], [-105.463602, 28.188458], [-105.464301, 28.187829], [-105.465011, 28.18719], [-105.463591, 28.185921], [-105.462108, 28.184636], [-105.460717, 28.185891], [-105.46104, 28.186178], [-105.46164, 28.186712], [-105.462171, 28.187185]]]}}, {"type": "Feature", "properties": {"COLONIA": "RESIDENCIAL VALLE VERDE", "area_km2": 0.06823949609375}, "geometry": {"type": "Polygon", "coordinates": [[[-105.491802, 28.175422], [-105.492004, 28.175646], [-105.492245, 28.175914], [-105.492385, 28.176069], [-105.493947, 28.174525], [-105.493982, 28.173589], [-105.493706, 28.173394], [-105.493705, 28.173394], [-105.4929, 28.172825], [-105.492587, 28.172604], [-105.49254, 28.172653], [-105.491937, 28.173291], [-105.49058, 28.174727], [-105.49122, 28.175091], [-105.491802, 28.175422]]]}}, {"type": "Feature", "properties": {"COLONIA": "RINCON DE CAMPO REAL", "area_km2": 0.08787202734375}, "geometry": {"type": "Polygon", "coordinates": [[[-105.455896, 28.216102], [-105.456547, 28.216083], [-105.457891, 28.216101], [-105.457865, 28.215861], [-105.457801, 28.215251], [-105.457755, 28.214821], [-105.457709, 28.214392], [-105.457668, 28.213957], [-105.457628, 28.21354], [-105.457625, 28.213504], [-105.457605, 28.21329], [-105.45756, 28.213283], [-105.456379, 28.213], [-105.456145, 28.212943], [-105.456044, 28.212638], [-105.455959, 28.212379], [-105.455902, 28.212212], [-105.455895, 28.212203], [-105.455528, 28.212113], [-105.454617, 28.211913], [-105.454758, 28.212374], [-105.454909, 28.212868], [-105.455896, 28.216102]]]}}, {"type": "Feature", "properties": {"COLONIA": "ROMA", "area_km2": 0.150328501953125}, "geometry": {"type": "Polygon", "coordinates": [[[-105.456912, 28.165382], [-105.456541, 28.165729], [-105.456238, 28.166012], [-105.455906, 28.166323], [-105.455581, 28.166654], [-105.455498, 28.166807], [-105.455494, 28.167183], [-105.455472, 28.167619], [-105.456007, 28.167636], [-105.456748, 28.16766], [-105.457427, 28.167683], [-105.45818, 28.16837], [-105.458284, 28.168329], [-105.458558, 28.168079], [-105.4589, 28.167768], [-105.459241, 28.167457], [-105.459635, 28.167098], [-105.45999, 28.166766], [-105.460468, 28.166318], [-105.460665, 28.166134], [-105.461019, 28.165803], [-105.460679, 28.165488], [-105.460944, 28.165237], [-105.460918, 28.164592], [-105.460912, 28.164438], [-105.460888, 28.163849], [-105.461029, 28.163649], [-105.460749, 28.16376], [-105.460333, 28.163925], [-105.459862, 28.164111], [-105.459596, 28.164217], [-105.459346, 28.164316], [-105.458823, 28.164523], [-105.458492, 28.164654], [-105.457876, 28.164898], [-105.457379, 28.165095], [-105.457101, 28.165205], [-105.456912, 28.165382]]]}}, {"type": "Feature", "properties": {"COLONIA": "ROMA II", "area_km2": 0.0482000625}, "geometry": {"type": "Polygon", "coordinates": [[[-105.459301, 28.162607], [-105.458635, 28.162878], [-105.458152, 28.163058], [-105.458252, 28.163231], [-105.458621, 28.163604], [-105.458531, 28.163896], [-105.458432, 28.163986], [-105.458319, 28.164093], [-105.457993, 28.164402], [-105.457779, 28.164613], [-105.457672, 28.164718], [-105.457213, 28.164946], [-105.457379, 28.165095], [-105.457876, 28.164898], [-105.458492, 28.164654], [-105.458823, 28.164523], [-105.459346, 28.164316], [-105.459596, 28.164217], [-105.459862, 28.164111], [-105.460333, 28.163925], [-105.460749, 28.16376], [-105.461029, 28.163649], [-105.461245, 28.163497], [-105.46106, 28.163325], [-105.460241, 28.162555], [-105.460845, 28.162299], [-105.460773, 28.16209], [-105.460246, 28.162268], [-105.459763, 28.162446], [-105.459301, 28.162607]]]}}, {"type": "Feature", "properties": {"COLONIA": "SAN CARLOS", "area_km2": 0.244299703125}, "geometry": {"type": "Polygon", "coordinates": [[[-105.466469, 28.155641], [-105.466829, 28.156808], [-105.466521, 28.156858], [-105.46625, 28.156886], [-105.465898, 28.156914], [-105.465904, 28.157023], [-105.465791, 28.15738], [-105.465678, 28.157736], [-105.465573, 28.15807], [-105.465455, 28.158444], [-105.465323, 28.158864], [-105.465211, 28.159254], [-105.465081, 28.159685], [-105.464952, 28.160113], [-105.464807, 28.160545], [-105.464534, 28.160903], [-105.465251, 28.160663], [-105.465525, 28.160593], [-105.466067, 28.16041], [-105.467488, 28.16], [-105.467718, 28.159919], [-105.468262, 28.159729], [-105.46835, 28.159585], [-105.468975, 28.158638], [-105.469087, 28.158525], [-105.469134, 28.158478], [-105.469223, 28.158388], [-105.469668, 28.157968], [-105.46971, 28.15793], [-105.469767, 28.157881], [-105.470422, 28.157322], [-105.470483, 28.15727], [-105.470544, 28.157218], [-105.471187, 28.156665], [-105.471244, 28.15662], [-105.471285, 28.156586], [-105.471429, 28.156468], [-105.472205, 28.155842], [-105.472308, 28.155772], [-105.472167, 28.155495], [-105.471753, 28.154685], [-105.470862, 28.154791], [-105.470366, 28.15485], [-105.469869, 28.154909], [-105.469346, 28.154972], [-105.468921, 28.155022], [-105.468496, 28.155073], [-105.468196, 28.155157], [-105.467874, 28.155247], [-105.467413, 28.155376], [-105.466913, 28.155517], [-105.466469, 28.155641]]]}}, {"type": "Feature", "properties": {"COLONIA": "SAN FRANCISCO", "area_km2": 0.1154151171875}, "geometry": {"type": "Polygon", "coordinates": [[[-105.467487, 28.163364], [-105.467846, 28.163055], [-105.46832, 28.163462], [-105.468686, 28.163097], [-105.469052, 28.162732], [-105.469616, 28.16217], [-105.4698, 28.161987], [-105.47007, 28.16182], [-105.469713, 28.161532], [-105.46962, 28.161456], [-105.468392, 28.160464], [-105.468046, 28.160246], [-105.467884, 28.160101], [-105.467718, 28.159919], [-105.467488, 28.16], [-105.466067, 28.16041], [-105.465525, 28.160593], [-105.465251, 28.160663], [-105.464534, 28.160903], [-105.464413, 28.160946], [-105.46389, 28.161134], [-105.464217, 28.161235], [-105.464861, 28.161423], [-105.465356, 28.161764], [-105.466514, 28.162551], [-105.467487, 28.163364]]]}}, {"type": "Feature", "properties": {"COLONIA": "SAN JORGE", "area_km2": 0.093691982421875}, "geometry": {"type": "Polygon", "coordinates": [[[-105.489742, 28.178118], [-105.49005, 28.178384], [-105.49061, 28.178818], [-105.49125, 28.179372], [-105.491925, 28.178756], [-105.492263, 28.178446], [-105.492706, 28.178038], [-105.493165, 28.177616], [-105.493426, 28.177376], [-105.492767, 28.17652], [-105.492385, 28.176069], [-105.492245, 28.175914], [-105.492004, 28.175646], [-105.491802, 28.175422], [-105.490696, 28.17627], [-105.490144, 28.176692], [-105.489565, 28.177136], [-105.489095, 28.177496], [-105.489742, 28.178118]]]}}, {"type": "Feature", "properties": {"COLONIA": "SAN LORENZO", "area_km2": 0.06272401171875}, "geometry": {"type": "Polygon", "coordinates": [[[-105.469109, 28.206851], [-105.469623, 28.207255], [-105.470153, 28.207733], [-105.47053, 28.208072], [-105.471122, 28.208606], [-105.471489, 28.208062], [-105.471626, 28.207858], [-105.471998, 28.207307], [-105.47167, 28.207054], [-105.471288, 28.206759], [-105.470848, 28.206397], [-105.470496, 28.20612], [-105.470133, 28.206449], [-105.469967, 28.206273], [-105.469736, 28.206067], [-105.469573, 28.205784], [-105.469295, 28.205345], [-105.469039, 28.205029], [-105.469002, 28.204984], [-105.469008, 28.204473], [-105.468852, 28.204603], [-105.468765, 28.204675], [-105.468728, 28.204733], [-105.468673, 28.204817], [-105.468553, 28.205002], [-105.468285, 28.205417], [-105.468157, 28.205616], [-105.467825, 28.206128], [-105.467781, 28.206201], [-105.468037, 28.20629], [-105.468564, 28.20651], [-105.469109, 28.206851]]]}}, {"type": "Feature", "properties": {"COLONIA": "SAN PATRICIO", "area_km2": 0.080018529296875}, "geometry": {"type": "Polygon", "coordinates": [[[-105.483242, 28.182669], [-105.48367, 28.183058], [-105.483911, 28.183276], [-105.483878, 28.183449], [-105.484387, 28.182988], [-105.484945, 28.182482], [-105.485396, 28.182073], [-105.486038, 28.181491], [-105.486405, 28.181121], [-105.486566, 28.180974], [-105.486799, 28.180762], [-105.486486, 28.180479], [-105.486101, 28.18013], [-105.485668, 28.179739], [-105.485399, 28.179496], [-105.484362, 28.180406], [-105.483936, 28.18078], [-105.48318, 28.181455], [-105.482906, 28.181699], [-105.48253, 28.182035], [-105.483242, 28.182669]]]}}, {"type": "Feature", "properties": {"COLONIA": "SANTA CATARINA", "area_km2": 0.0828880546875}, "geometry": {"type": "Polygon", "coordinates": [[[-105.442189, 28.188616], [-105.441642, 28.188647], [-105.441213, 28.188667], [-105.440677, 28.188691], [-105.440736, 28.190214], [-105.440202, 28.190223], [-105.439668, 28.190232], [-105.439681, 28.190671], [-105.439177, 28.190685], [-105.439188, 28.191107], [-105.439216, 28.191528], [-105.439269, 28.193148], [-105.439721, 28.192771], [-105.440468, 28.192163], [-105.44085, 28.191878], [-105.441232, 28.191594], [-105.441544, 28.191485], [-105.442238, 28.191241], [-105.442234, 28.19103], [-105.442226, 28.190602], [-105.442218, 28.190172], [-105.44221, 28.189729], [-105.442189, 28.188616]]]}}, {"type": "Feature", "properties": {"COLONIA": "SANTA GERTRUDIS", "area_km2": 0.26990737109375}, "geometry": {"type": "Polygon", "coordinates": [[[-105.436588, 28.188108], [-105.436752, 28.188307], [-105.436912, 28.188587], [-105.437108, 28.188559], [-105.437044, 28.188853], [-105.437416, 28.189499], [-105.437163, 28.189804], [-105.436057, 28.190097], [-105.436088, 28.190353], [-105.435767, 28.19037], [-105.435839, 28.19061], [-105.435994, 28.190802], [-105.436126, 28.190807], [-105.436133, 28.190909], [-105.436307, 28.191207], [-105.436513, 28.191614], [-105.436593, 28.191905], [-105.437269, 28.19297], [-105.437223, 28.193508], [-105.43805, 28.194193], [-105.438244, 28.194209], [-105.438437, 28.194016], [-105.438632, 28.193742], [-105.439269, 28.193148], [-105.439216, 28.191528], [-105.439188, 28.191107], [-105.439177, 28.190685], [-105.439681, 28.190671], [-105.439668, 28.190232], [-105.440202, 28.190223], [-105.440736, 28.190214], [-105.440677, 28.188691], [-105.441213, 28.188667], [-105.441642, 28.188647], [-105.442189, 28.188616], [-105.442177, 28.187986], [-105.442148, 28.187496], [-105.442094, 28.185754], [-105.441531, 28.185922], [-105.441019, 28.186148], [-105.440515, 28.18637], [-105.440053, 28.186574], [-105.439857, 28.186661], [-105.43959, 28.186778], [-105.43907, 28.187007], [-105.43876, 28.187144], [-105.43802, 28.187472], [-105.437574, 28.187658], [-105.437237, 28.187819], [-105.437055, 28.1879], [-105.436867, 28.187984], [-105.436588, 28.188108]]]}}, {"type": "Feature", "properties": {"COLONIA": "SECTOR NORTE", "area_km2": 0.64528768359375}, "geometry": {"type": "Polygon", "coordinates": [[[-105.472287, 28.204587], [-105.472596, 28.20491], [-105.473647, 28.203987], [-105.473819, 28.203719], [-105.473835, 28.20256], [-105.47382, 28.201696], [-105.473838, 28.201311], [-105.473798, 28.200667], [-105.473792, 28.20057], [-105.473824, 28.199992], [-105.474553, 28.199336], [-105.47588, 28.198143], [-105.476655, 28.197445], [-105.475217, 28.196164], [-105.475162, 28.196114], [-105.474514, 28.195527], [-105.474222, 28.195278], [-105.474369, 28.194913], [-105.474179, 28.194548], [-105.473793, 28.194331], [-105.473333, 28.194524], [-105.473055, 28.194279], [-105.472326, 28.193637], [-105.471853, 28.19322], [-105.471389, 28.193202], [-105.470901, 28.193646], [-105.470191, 28.194292], [-105.469906, 28.194544], [-105.469863, 28.194584], [-105.470204, 28.194921], [-105.469805, 28.195261], [-105.469445, 28.195569], [-105.469089, 28.195239], [-105.469011, 28.195309], [-105.468731, 28.195564], [-105.468039, 28.196193], [-105.467385, 28.196787], [-105.467299, 28.196864], [-105.466608, 28.197493], [-105.467303, 28.198122], [-105.467999, 28.198751], [-105.467429, 28.199267], [-105.467153, 28.199517], [-105.46787, 28.200175], [-105.468553, 28.200834], [-105.469247, 28.201527], [-105.470136, 28.202433], [-105.470593, 28.202896], [-105.471256, 28.203522], [-105.471552, 28.203824], [-105.471954, 28.204237], [-105.472287, 28.204587]]]}}, {"type": "Feature", "properties": {"COLONIA": "SECTOR ORIENTE", "area_km2": 1.893027923828125}, "geometry": {"type": "Polygon", "coordinates": [[[-105.452605, 28.194968], [-105.457075, 28.194988], [-105.457865, 28.19498], [-105.460057, 28.194955], [-105.462175, 28.194931], [-105.462567, 28.194929], [-105.463202, 28.195664], [-105.464469, 28.19699], [-105.467153, 28.199517], [-105.467429, 28.199267], [-105.467999, 28.198751], [-105.467303, 28.198122], [-105.466608, 28.197493], [-105.467299, 28.196864], [-105.467385, 28.196787], [-105.468039, 28.196193], [-105.468731, 28.195564], [-105.469011, 28.195309], [-105.469089, 28.195239], [-105.469445, 28.195569], [-105.469805, 28.195261], [-105.470204, 28.194921], [-105.469863, 28.194584], [-105.469906, 28.194544], [-105.470191, 28.194292], [-105.470901, 28.193646], [-105.471389, 28.193202], [-105.471414, 28.192786], [-105.470923, 28.192364], [-105.470184, 28.191729], [-105.469842, 28.191436], [-105.469704, 28.191543], [-105.469451, 28.191562], [-105.46926, 28.191527], [-105.46909, 28.19144], [-105.468972, 28.191284], [-105.468967, 28.191119], [-105.468971, 28.190925], [-105.469083, 28.190768], [-105.468724, 28.190441], [-105.468089, 28.189863], [-105.468017, 28.189799], [-105.467677, 28.189503], [-105.467308, 28.189181], [-105.466952, 28.188869], [-105.466638, 28.188595], [-105.466312, 28.18831], [-105.466139, 28.188161], [-105.465011, 28.18719], [-105.464301, 28.187829], [-105.465418, 28.18879], [-105.46501, 28.189142], [-105.464614, 28.189358], [-105.463602, 28.188458], [-105.46286, 28.189125], [-105.462175, 28.189741], [-105.461808, 28.190071], [-105.461526, 28.190325], [-105.46149, 28.190416], [-105.460004, 28.189113], [-105.460355, 28.188801], [-105.460721, 28.188475], [-105.460407, 28.188201], [-105.459934, 28.187789], [-105.459729, 28.187611], [-105.459256, 28.187199], [-105.459588, 28.186902], [-105.460077, 28.186464], [-105.460717, 28.185891], [-105.460436, 28.185657], [-105.459995, 28.185272], [-105.45961, 28.184935], [-105.459245, 28.184616], [-105.458855, 28.184276], [-105.458444, 28.183917], [-105.458036, 28.18356], [-105.457678, 28.183247], [-105.457307, 28.182922], [-105.456903, 28.182568], [-105.456553, 28.182262], [-105.456162, 28.18192], [-105.455779, 28.181585], [-105.454912, 28.180826], [-105.453454, 28.181442], [-105.45345, 28.180943], [-105.453194, 28.181045], [-105.451146, 28.181927], [-105.450666, 28.182138], [-105.450251, 28.182332], [-105.450045, 28.182427], [-105.449877, 28.182548], [-105.450717, 28.183423], [-105.451231, 28.1841], [-105.451491, 28.184593], [-105.451707, 28.185093], [-105.451761, 28.185319], [-105.451948, 28.186134], [-105.451969, 28.186458], [-105.451989, 28.186762], [-105.452005, 28.186999], [-105.452244, 28.18979], [-105.452378, 28.192252], [-105.452434, 28.192927], [-105.45254, 28.194197], [-105.452605, 28.194968]]]}}, {"type": "Feature", "properties": {"COLONIA": "SECTOR PONIENTE", "area_km2": 2.850182416015625}, "geometry": {"type": "Polygon", "coordinates": [[[-105.483614, 28.19851], [-105.483879, 28.19871], [-105.484233, 28.199037], [-105.484624, 28.19927], [-105.484962, 28.199028], [-105.485321, 28.198745], [-105.485648, 28.198355], [-105.485771, 28.197793], [-105.485781, 28.197686], [-105.48583, 28.197204], [-105.486065, 28.197312], [-105.486204, 28.196943], [-105.486377, 28.196486], [-105.486565, 28.196073], [-105.487002, 28.194668], [-105.487065, 28.19442], [-105.486942, 28.1938], [-105.486819, 28.193263], [-105.486696, 28.192726], [-105.486696, 28.192708], [-105.486687, 28.191597], [-105.487006, 28.191309], [-105.489578, 28.189372], [-105.490206, 28.188803], [-105.490484, 28.188306], [-105.490862, 28.18765], [-105.491239, 28.186994], [-105.492153, 28.185406], [-105.492547, 28.185153], [-105.493438, 28.184582], [-105.494667, 28.18389], [-105.50045, 28.181787], [-105.504861, 28.181807], [-105.504859, 28.18145], [-105.504829, 28.175906], [-105.493426, 28.177376], [-105.493165, 28.177616], [-105.492706, 28.178038], [-105.492263, 28.178446], [-105.491925, 28.178756], [-105.49125, 28.179372], [-105.491009, 28.179581], [-105.490737, 28.179812], [-105.490181, 28.180297], [-105.489658, 28.180787], [-105.489112, 28.181262], [-105.488557, 28.181762], [-105.488019, 28.182246], [-105.487463, 28.182747], [-105.486944, 28.183214], [-105.486363, 28.18372], [-105.485835, 28.184181], [-105.485303, 28.184656], [-105.484701, 28.184146], [-105.483878, 28.183449], [-105.482582, 28.184697], [-105.482565, 28.184713], [-105.482083, 28.185174], [-105.481603, 28.185632], [-105.481413, 28.185675], [-105.481128, 28.185592], [-105.480875, 28.185359], [-105.480561, 28.185069], [-105.480223, 28.185359], [-105.479174, 28.186295], [-105.478815, 28.186136], [-105.478428, 28.186267], [-105.478258, 28.186595], [-105.478417, 28.186963], [-105.478252, 28.187111], [-105.478087, 28.187259], [-105.477377, 28.187897], [-105.477023, 28.188215], [-105.47667, 28.188532], [-105.475946, 28.189182], [-105.475864, 28.189254], [-105.475199, 28.189836], [-105.474533, 28.190419], [-105.474093, 28.190806], [-105.474365, 28.191049], [-105.474057, 28.191331], [-105.47374, 28.191621], [-105.473438, 28.191358], [-105.473047, 28.191743], [-105.472352, 28.192355], [-105.471846, 28.1928], [-105.471414, 28.192786], [-105.471389, 28.193202], [-105.471853, 28.19322], [-105.472326, 28.193637], [-105.473055, 28.194279], [-105.473333, 28.194524], [-105.473793, 28.194331], [-105.474179, 28.194548], [-105.474369, 28.194913], [-105.474222, 28.195278], [-105.474514, 28.195527], [-105.475162, 28.196114], [-105.475217, 28.196164], [-105.476655, 28.197445], [-105.477395, 28.196804], [-105.477694, 28.197085], [-105.478034, 28.196783], [-105.478672, 28.197353], [-105.478954, 28.197566], [-105.479089, 28.197599], [-105.479248, 28.196849], [-105.479359, 28.196332], [-105.479494, 28.196196], [-105.479106, 28.195832], [-105.47887, 28.195526], [-105.479552, 28.194917], [-105.480258, 28.19552], [-105.480984, 28.196167], [-105.481233, 28.196389], [-105.481641, 28.196753], [-105.482017, 28.197104], [-105.482413, 28.197453], [-105.482837, 28.197826], [-105.483198, 28.198144], [-105.483614, 28.19851]]]}}, {"type": "Feature", "properties": {"COLONIA": "SECTOR SUR", "area_km2": 0.03975815234375}, "geometry": {"type": "Polygon", "coordinates": [[[-105.466467, 28.18336], [-105.467067, 28.183891], [-105.467513, 28.184285], [-105.467903, 28.18463], [-105.468449, 28.184133], [-105.46901, 28.183622], [-105.469339, 28.183323], [-105.469076, 28.183094], [-105.468456, 28.182555], [-105.467907, 28.182077], [-105.467511, 28.18243], [-105.467445, 28.182489], [-105.46706, 28.182832], [-105.466467, 28.18336]]]}}, {"type": "Feature", "properties": {"COLONIA": "SOLIDARIDAD", "area_km2": 0.11176725}, "geometry": {"type": "Polygon", "coordinates": [[[-105.442238, 28.191241], [-105.442255, 28.191288], [-105.442333, 28.191262], [-105.442734, 28.191128], [-105.443265, 28.190951], [-105.443399, 28.190906], [-105.443859, 28.191184], [-105.444182, 28.191447], [-105.445217, 28.191998], [-105.445556, 28.192178], [-105.445427, 28.191525], [-105.445281, 28.191179], [-105.445192, 28.190764], [-105.445114, 28.19036], [-105.445192, 28.19023], [-105.445418, 28.189848], [-105.445628, 28.189495], [-105.445837, 28.189143], [-105.445894, 28.189047], [-105.444887, 28.188512], [-105.444359, 28.188246], [-105.443857, 28.187996], [-105.443554, 28.187927], [-105.443272, 28.187947], [-105.442724, 28.187967], [-105.442177, 28.187986], [-105.442189, 28.188616], [-105.44221, 28.189729], [-105.442218, 28.190172], [-105.442226, 28.190602], [-105.442234, 28.19103], [-105.442238, 28.191241]]]}}, {"type": "Feature", "properties": {"COLONIA": "TIERRA Y LIBERTAD", "area_km2": 0.7243095703125}, "geometry": {"type": "Polygon", "coordinates": [[[-105.453428, 28.179164], [-105.453441, 28.180705], [-105.45345, 28.180943], [-105.454541, 28.18049], [-105.456484, 28.179632], [-105.458451, 28.178801], [-105.460422, 28.177981], [-105.46237, 28.177161], [-105.462222, 28.177035], [-105.462044, 28.176883], [-105.461779, 28.176656], [-105.461776, 28.176434], [-105.461768, 28.175781], [-105.461751, 28.175362], [-105.461511, 28.175364], [-105.460747, 28.175358], [-105.460468, 28.175461], [-105.46018, 28.175227], [-105.461585, 28.173949], [-105.461218, 28.173627], [-105.460844, 28.173297], [-105.460464, 28.172963], [-105.460085, 28.172629], [-105.461539, 28.171337], [-105.462982, 28.170053], [-105.462619, 28.169727], [-105.462223, 28.16937], [-105.461851, 28.169055], [-105.461474, 28.168736], [-105.461097, 28.168417], [-105.460729, 28.168084], [-105.46035, 28.167743], [-105.459977, 28.167406], [-105.459635, 28.167098], [-105.459241, 28.167457], [-105.4589, 28.167768], [-105.458558, 28.168079], [-105.458284, 28.168329], [-105.45818, 28.16837], [-105.458532, 28.16869], [-105.458901, 28.169027], [-105.457463, 28.170307], [-105.457841, 28.170658], [-105.456401, 28.171939], [-105.454972, 28.17321], [-105.455368, 28.173556], [-105.453922, 28.174882], [-105.45338, 28.174887], [-105.453392, 28.175936], [-105.453399, 28.176576], [-105.453406, 28.17719], [-105.453955, 28.177339], [-105.454366, 28.177711], [-105.454728, 28.178038], [-105.455122, 28.1784], [-105.455075, 28.178481], [-105.454638, 28.178662], [-105.454252, 28.178822], [-105.453428, 28.179164]]]}}, {"type": "Feature", "properties": {"COLONIA": "V. DEL DESIERTO", "area_km2": 0.05652810546875}, "geometry": {"type": "Polygon", "coordinates": [[[-105.453332, 28.156861], [-105.453839, 28.156928], [-105.454331, 28.156993], [-105.454759, 28.15705], [-105.456821, 28.155096], [-105.456496, 28.155071], [-105.453374, 28.154757], [-105.453349, 28.156168], [-105.453328, 28.15661], [-105.453332, 28.156861]]]}}, {"type": "Feature", "properties": {"COLONIA": "ZONA DE GRANJAS", "area_km2": 0.058037482421875}, "geometry": {"type": "Polygon", "coordinates": [[[-105.480561, 28.185069], [-105.480875, 28.185359], [-105.481128, 28.185592], [-105.481413, 28.185675], [-105.481603, 28.185632], [-105.482083, 28.185174], [-105.482565, 28.184713], [-105.482582, 28.184697], [-105.483878, 28.183449], [-105.483911, 28.183276], [-105.48367, 28.183058], [-105.483242, 28.182669], [-105.482791, 28.183072], [-105.482284, 28.183525], [-105.481777, 28.183978], [-105.481396, 28.183656], [-105.481047, 28.18336], [-105.480504, 28.183836], [-105.479819, 28.184436], [-105.480169, 28.184734], [-105.480561, 28.185069]]]}}]}